{
    "links": {
        "self": "http://www.neowsapp.com/rest/v1/neo/3827339?api_key=iIulBulltgU6a56xZRHN4H3l9WmuAYTsLGpBGhQ2"
    },
    "id": "3827339",
    "neo_reference_id": "3827339",
    "name": "(2018 RB3)",
    "designation": "2018 RB3",
    "nasa_jpl_url": "http://ssd.jpl.nasa.gov/sbdb.cgi?sstr=3827339",
    "absolute_magnitude_h": 24.6,
    "estimated_diameter": {
        "kilometers": {
            "estimated_diameter_min": 0.0319561887,
            "estimated_diameter_max": 0.0714562102
        },
        "meters": {
            "estimated_diameter_min": 31.9561886721,
            "estimated_diameter_max": 71.4562101727
        },
        "miles": {
            "estimated_diameter_min": 0.0198566489,
            "estimated_diameter_max": 0.0444008168
        },
        "feet": {
            "estimated_diameter_min": 104.8431420431,
            "estimated_diameter_max": 234.436392583
        }
    },
    "is_potentially_hazardous_asteroid": false,
    "close_approach_data": [
        {
            "close_approach_date": "2018-09-01",
            "close_approach_date_full": "2018-Sep-01 23:17",
            "epoch_date_close_approach": 1535843820000,
            "relative_velocity": {
                "kilometers_per_second": "8.6703300372",
                "kilometers_per_hour": "31213.1881338411",
                "miles_per_hour": "19394.6612601636"
            },
            "miss_distance": {
                "astronomical": "0.0826865939",
                "lunar": "32.1650850271",
                "kilometers": "12369738.324994993",
                "miles": "7686198.9813691834"
            },
            "orbiting_body": "Earth"
        },
        {
            "close_approach_date": "2199-10-09",
            "close_approach_date_full": "2199-Oct-09 10:37",
            "epoch_date_close_approach": 7250899020000,
            "relative_velocity": {
                "kilometers_per_second": "18.7253023611",
                "kilometers_per_hour": "67411.0884998225",
                "miles_per_hour": "41886.6288514591"
            },
            "miss_distance": {
                "astronomical": "0.4019197477",
                "lunar": "156.3467818553",
                "kilometers": "60126338.166857399",
                "miles": "37360774.0947701462"
            },
            "orbiting_body": "Earth"
        }
    ],
    "orbital_data": {
        "orbit_id": "6",
        "orbit_determination_date": "2018-10-06 06:30:08",
        "first_observation_date": "2018-09-08",
        "last_observation_date": "2018-10-02",
        "data_arc_in_days": 24,
        "observations_used": 45,
        "orbit_uncertainty": "7",
        "minimum_orbit_intersection": ".0717924",
        "jupiter_tisserand_invariant": "3.468",
        "epoch_osculation": "2459000.5",
        "eccentricity": ".5181335743747293",
        "semi_major_axis": "2.186650505466953",
        "inclination": "11.04177004961753",
        "ascending_node_longitude": "175.3587984937217",
        "orbital_period": "1181.04783860837",
        "perihelion_distance": "1.053673463161052",
        "perihelion_argument": "152.8310463708443",
        "aphelion_distance": "3.319627547772854",
        "perihelion_time": "2459533.142996202199",
        "mean_anomaly": "197.6429198170901",
        "mean_motion": ".304814071226944",
        "equinox": "J2000",
        "orbit_class": {
            "orbit_class_type": "AMO",
            "orbit_class_description": "Near-Earth asteroid orbits similar to that of 1221 Amor",
            "orbit_class_range": "1.017 AU < q (perihelion) < 1.3 AU"
        }
    },
    "is_sentry_object": false
}